IRIDIUM 136             
1 42962U 17061H   23349.72780966  .00000262  00000+0  86382-4 0  9994
2 42962  86.3977  47.4061 0002239 102.8036 257.3410 14.34218167323763
